FLOCK 4G-13             
1 62621U 25009N   26068.70638971  .00053076  00000+0  16695-2 0  9995
2 62621  97.4019 151.0918 0003801 292.7207  67.3633 15.32770015 63700
STARLINK-34882          
1 66227U 25244X   26068.71011881  .00027715  00000+0  94451-3 0  9996
2 66227  53.1598 229.7417 0001210  56.6324 303.4792 15.30195652 21668
